ONEWEB-0216             
1 48801U 21045AL  24107.88965961 -.00000206  00000+0 -58074-3 0  9995
2 48801  87.9025  56.6799 0001660  74.5046 285.6268 13.15548225140261
ONEWEB-0239             
1 48802U 21045AM  24107.89441289 -.00000022  00000+0 -91685-4 0  9991
2 48802  87.9034  56.6496 0001780 113.3346 246.7972 13.15547672140304
ONEWEB-0250             
1 48968U 21060B   24107.77650198  .00000054  00000+0  10686-3 0  9993
2 48968  87.9153  26.2759 0001737  88.3670 271.7660 13.16592489135456
ONEWEB-0252             
1 48970U 21060D   24107.80341324 -.00000409  00000+0 -11023-2 0  9999
2 48970  87.9152  26.2798 0001755  75.0785 285.0540 13.16594474135520
ONEWEB-0253             
1 48971U 21060E   24107.79233541 -.00000018  00000+0 -80978-4 0  9992
2 48971  87.9149  26.2953 0001564  82.9730 277.1579 13.16593429135450
ONEWEB-0254             
1 48972U 21060F   24107.80183968 -.00000050  00000+0 -16503-3 0  9990
2 48972  87.9153  26.2703 0001549  84.1366 275.9942 13.16593460135456
ONEWEB-0255             
1 48973U 21060G   24107.76383754  .00000073  00000+0  15858-3 0  9996
2 48973  87.9151  26.3128 0001850  81.7240 278.4101 13.16592588135529
